{
    "links": {
        "self": "http://www.neowsapp.com/rest/v1/neo/3460263?api_key=iIulBulltgU6a56xZRHN4H3l9WmuAYTsLGpBGhQ2"
    },
    "id": "3460263",
    "neo_reference_id": "3460263",
    "name": "(2009 KN)",
    "designation": "2009 KN",
    "nasa_jpl_url": "http://ssd.jpl.nasa.gov/sbdb.cgi?sstr=3460263",
    "absolute_magnitude_h": 20.4,
    "estimated_diameter": {
        "kilometers": {
            "estimated_diameter_min": 0.2210828104,
            "estimated_diameter_max": 0.4943561926
        },
        "meters": {
            "estimated_diameter_min": 221.0828103591,
            "estimated_diameter_max": 494.3561926196
        },
        "miles": {
            "estimated_diameter_min": 0.137374447,
            "estimated_diameter_max": 0.3071786018
        },
        "feet": {
            "estimated_diameter_min": 725.3373275385,
            "estimated_diameter_max": 1621.9035709942
        }
    },
    "is_potentially_hazardous_asteroid": false,
    "close_approach_data": [
        {
            "close_approach_date": "2008-12-02",
            "close_approach_date_full": "2008-Dec-02 22:55",
            "epoch_date_close_approach": 1228258500000,
            "relative_velocity": {
                "kilometers_per_second": "33.2291029289",
                "kilometers_per_hour": "119624.7705439716",
                "miles_per_hour": "74330.1803416139"
            },
            "miss_distance": {
                "astronomical": "0.4660609648",
                "lunar": "181.2977153072",
                "kilometers": "69721727.624224976",
                "miles": "43323072.6281216288"
            },
            "orbiting_body": "Earth"
        }
    ],
    "orbital_data": {
        "orbit_id": "11",
        "orbit_determination_date": "2017-04-06 09:00:32",
        "first_observation_date": "2009-05-17",
        "last_observation_date": "2009-05-30",
        "data_arc_in_days": 13,
        "observations_used": 33,
        "orbit_uncertainty": "9",
        "minimum_orbit_intersection": ".465434",
        "jupiter_tisserand_invariant": "2.270",
        "epoch_osculation": "2454971.5",
        "eccentricity": ".6634360865206491",
        "semi_major_axis": "2.974615567368571",
        "inclination": "62.61231237309168",
        "ascending_node_longitude": "63.96872744952255",
        "orbital_period": "1873.892601579852",
        "perihelion_distance": "1.001148256450166",
        "perihelion_argument": "85.77857366989426",
        "aphelion_distance": "4.948082878286976",
        "perihelion_time": "2454872.469354331267",
        "mean_anomaly": "19.02512044216782",
        "mean_motion": ".1921134646118401",
        "equinox": "J2000",
        "orbit_class": {
            "orbit_class_type": "APO",
            "orbit_class_description": "Near-Earth asteroid orbits which cross the Earth’s orbit similar to that of 1862 Apollo",
            "orbit_class_range": "a (semi-major axis) > 1.0 AU; q (perihelion) < 1.017 AU"
        }
    },
    "is_sentry_object": false
}